[{"OBJECT_NAME":"STARLINK-36431","OBJECT_ID":"2026-005T","EPOCH":"2026-03-09T22:00:01.999584","MEAN_MOTION":15.27537551,"ECCENTRICITY":0.00012342,"INCLINATION":42.9991,"RA_OF_ASC_NODE":237.0254,"ARG_OF_PERICENTER":268.8178,"MEAN_ANOMALY":229.7577,"EPHEMERIS_TYPE":0,"CLASSIFICATION_TYPE":"U","NORAD_CAT_ID":67421,"ELEMENT_SET_NO":999,"REV_AT_EPOCH":584,"BSTAR":0.0028284612,"MEAN_MOTION_DOT":0.00078299,"MEAN_MOTION_DDOT":0},{"OBJECT_NAME":"OBJECT D","OBJECT_ID":"2021-102D","EPOCH":"2026-03-09T14:47:14.426880","MEAN_MOTION":15.2846442,"ECCENTRICITY":0.0009157,"INCLINATION":97.3342,"RA_OF_ASC_NODE":112.2633,"ARG_OF_PERICENTER":187.6206,"MEAN_ANOMALY":172.4897,"EPHEMERIS_TYPE":0,"CLASSIFICATION_TYPE":"U","NORAD_CAT_ID":49398,"ELEMENT_SET_NO":999,"REV_AT_EPOCH":23880,"BSTAR":0.00046011,"MEAN_MOTION_DOT":0.00012697,"MEAN_MOTION_DDOT":0}]
